TDRS 3                  
1 19548U 88091B   24360.37631920 -.00000283  00000+0  00000+0 0  9991
2 19548  13.0150 344.6024 0041543 339.0950 217.2907  1.00269352119982
HST                     
1 20580U 90037B   24360.55430371  .00011437  00000+0  47858-3 0  9997
2 20580  28.4663 139.1548 0002144 350.8911   9.1643 15.21953806706179
TDRS 5                  
1 21639U 91054B   24360.44512861 -.00000286  00000+0  00000+0 0  9991
2 21639  14.1373 357.7143 0006473 274.9986 279.6762  1.00268601122319
TDRS 6                  
1 22314U 93003B   24360.45119785 -.00000280  00000+0  00000+0 0  9991
2 22314  14.1688   1.0166 0008142 193.6210  16.3846  1.00269764117005
TDRS 7                  
1 23613U 95035B   24360.63729752 -.00000187  00000+0  00000+0 0  9998
2 23613  13.6014 351.8963 0021324  69.6799 347.3679  1.00274546107854
ISS (ZARYA)             
1 25544U 98067A   24360.49619315  .00024109  00000+0  42581-3 0  9991
2 25544  51.6378  87.5169 0005682   4.6793 355.4249 15.50207956488224
TERRA                   
1 25994U 99068A   24360.57965911  .00001378  00000+0  29427-3 0  9994
2 25994  98.0250  58.2568 0003449 113.5095  22.6747 14.60336820330976
TDRS 8                  
1 26388U 00034A   24360.43701699  .00000110  00000+0  00000+0 0  9998
2 26388  11.8348  35.7038 0007478 227.5004 180.9190  1.00270055 89786
TIMED                   
1 26998U 01055B   24360.39781690  .00003518  00000+0  34229-3 0  9992
2 26998  74.0697 238.1422 0002583 238.6579 121.4352 14.92957870250343
AQUA                    
1 27424U 02022A   24360.61311487  .00003157  00000+0  65957-3 0  9991
2 27424  98.3556 311.0982 0000792 119.8339  53.3368 14.60562360204606
TDRS 10                 
1 27566U 02055A   24360.48908821  .00000104  00000+0  00000+0 0  9996
2 27566   9.9633  43.8477 0005860 282.3341 133.2007  1.00274059 80836
SORCE                   
1 27651U 03004A   24360.54515374  .00008385  00000+0  70215-3 0  9998
2 27651  39.9924  83.6503 0019967 151.3632 208.8261 14.98241492190929
AURA                    
1 28376U 04026A   24360.55215551  .00002958  00000+0  63058-3 0  9990
2 28376  98.2743 304.4181 0001188  88.8356 271.2979 14.59672348 87582
SWIFT                   
1 28485U 04047A   24360.33983173  .00029633  00000+0  10058-2 0  9992
2 28485  20.5557 243.7940 0006776 251.0451 108.9253 15.28642778103367
THEMIS A                
1 30580U 07004A   24359.59721173 -.00000258  00000+0  00000+0 0  9999
2 30580   7.3375 248.2576 8419923 358.0628   0.4194  0.87838334 61228
THEMIS D                
1 30797U 07004D   24360.58896324 -.00000331  00000+0  00000+0 0  9993
2 30797   2.7189 248.2575 8405226   2.4065 303.0643  0.87839139 36334
THEMIS E                
1 30798U 07004E   24360.60919525 -.00000330  00000+0  00000+0 0  9995
2 30798   5.0121 274.0913 8393820 337.5006 322.6574  0.87836507 61179
FGRST (GLAST)           
1 33053U 08029A   24360.32750523  .00007968  00000+0  35050-3 0  9990
2 33053  25.5840 334.1720 0010019 107.3761 252.7872 15.19408079913657
TDRS 11                 
1 39070U 13004A   24360.57861411  .00000103  00000+0  00000+0 0  9997
2 39070   2.8702  18.1920 0001676  21.4695  88.8413  1.00267543 41294
TDRS 12                 
1 39504U 14004A   24360.51164373 -.00000246  00000+0  00000+0 0  9996
2 39504   3.5959   8.0233 0005511 252.6926 337.0878  1.00268668 38873
GPM-CORE                
1 39574U 14009C   24360.56769717  .00029458  00000+0  63490-3 0  9997
2 39574  64.9813 312.2163 0006472 257.1246 102.9171 15.44463294614616
MMS 1                   
1 40482U 15011A   24360.58335648 -.00000598  00000+0  00000+0 0  9994
2 40482  58.2407   0.7292 8921562 154.9783 292.8677  0.28541912  1347
MMS 2                   
1 40483U 15011B   24360.58335648 -.00000599  00000+0  00000+0 0  9996
2 40483  58.2387   0.7295 8921686 154.9753 291.3450  0.28533082  1344
MMS 3                   
1 40484U 15011C   24360.58335648 -.00000598  00000+0  00000+0 0  9996
2 40484  58.2419   0.7282 8921495 154.9786 291.5873  0.28540728  1347
MMS 4                   
1 40485U 15011D   24360.58335648 -.00000599  00000+0  00000+0 0  9998
2 40485  58.2355   0.7322 8921377 154.9744 281.7694  0.28531888  1344
TDRS 13                 
1 42915U 17047A   24360.45503300 -.00000073  00000+0  00000+0 0  9994
2 42915   3.5155 349.0173 0010459 120.1405 137.7329  1.00272035 26944
NOAA 20 (JPSS-1)        
1 43013U 17073A   24360.56560022  .00000282  00000+0  15475-3 0  9996
2 43013  98.7264 295.4219 0001985  58.2228 301.9141 14.19524867368059
